[{"OBJECT_NAME":"YAOGAN-36 02A","OBJECT_ID":"2022-133A","EPOCH":"2026-03-10T00:04:36.049728","MEAN_MOTION":15.23118612,"ECCENTRICITY":0.00301484,"INCLINATION":35.0077,"RA_OF_ASC_NODE":23.5078,"ARG_OF_PERICENTER":29.898,"MEAN_ANOMALY":330.345,"EPHEMERIS_TYPE":0,"CLASSIFICATION_TYPE":"U","NORAD_CAT_ID":54042,"ELEMENT_SET_NO":999,"REV_AT_EPOCH":18962,"BSTAR":0.00070143583,"MEAN_MOTION_DOT":0.00017174,"MEAN_MOTION_DDOT":0},{"OBJECT_NAME":"STARLINK-34294","OBJECT_ID":"2025-137F","EPOCH":"2026-03-09T21:23:18.013344","MEAN_MOTION":15.30210458,"ECCENTRICITY":0.00010242,"INCLINATION":53.1587,"RA_OF_ASC_NODE":334.4547,"ARG_OF_PERICENTER":106.1711,"MEAN_ANOMALY":253.9403,"EPHEMERIS_TYPE":0,"CLASSIFICATION_TYPE":"U","NORAD_CAT_ID":64599,"ELEMENT_SET_NO":999,"REV_AT_EPOCH":4076,"BSTAR":0.00086245036,"MEAN_MOTION_DOT":0.00025279,"MEAN_MOTION_DDOT":0}]
